start=new Date('2022-12-07T00:00:00.000Z').valueOf();
sats=[{"APOAPSIS":"548.350","EPOCH":"2022-12-06T20:41:07.413504","ECCENTRICITY":"0.00016110","CLASSIFICATION_TYPE":"U","ARG_OF_PERICENTER":"67.1707","MEAN_MOTION":"15.06393382","OBJECT_NAME":"STARLINK-2612","NORAD_CAT_ID":"48379","MEAN_ELEMENT_THEORY":"SGP4","MEAN_MOTION_DDOT":"0.0000000000000","REF_FRAME":"TEME","GP_ID":"219695430","OBJECT_ID":"2021-038AC","PERIAPSIS":"546.118","EPHEMERIS_TYPE":"0","LAUNCH_DATE":"2021-05-04","PERIOD":"95.593","FILE":"3683274","BSTAR":"0.00002158200000","TLE_LINE1":"1 48379U 21038AC  22340.86189136  .00000040  00000-0  21582-4 0  9994","ELEMENT_SET_NO":"999","RA_OF_ASC_NODE":"288.4764","REV_AT_EPOCH":"8798","SITE":"AFETR","MEAN_ANOMALY":"292.9452","SEMIMAJOR_AXIS":"6925.369","MEAN_MOTION_DOT":"0.00000040","COUNTRY_CODE":"US","CENTER_NAME":"EARTH","INCLINATION":"53.0541","OBJECT_TYPE":"PAYLOAD","TIME_SYSTEM":"UTC","TLE_LINE2":"2 48379  53.0541 288.4764 0001611  67.1707 292.9452 15.06393382 87982","DECAY_DATE":null,"RCS_SIZE":"MEDIUM"},{"OBJECT_NAME":"STARLINK-2614","CLASSIFICATION_TYPE":"U","ARG_OF_PERICENTER":"48.4671","MEAN_MOTION":"15.06383559","ECCENTRICITY":"0.00018170","EPOCH":"2022-12-06T21:16:56.447616","APOAPSIS":"548.522","LAUNCH_DATE":"2021-05-04","EPHEMERIS_TYPE":"0","PERIAPSIS":"546.006","GP_ID":"219695665","OBJECT_ID":"2021-038AD","REF_FRAME":"TEME","MEAN_MOTION_DDOT":"0.0000000000000","MEAN_ELEMENT_THEORY":"SGP4","NORAD_CAT_ID":"48380","MEAN_MOTION_DOT":"-0.00002320","SEMIMAJOR_AXIS":"6925.399","MEAN_ANOMALY":"311.6474","SITE":"AFETR","REV_AT_EPOCH":"8798","RA_OF_ASC_NODE":"288.3698","ELEMENT_SET_NO":"999","TLE_LINE1":"1 48380U 21038AD  22340.88676444 -.00002320  00000-0 -13692-3 0  9998","BSTAR":"-0.00013692000000","FILE":"3683274","PERIOD":"95.593","DECAY_DATE":null,"RCS_SIZE":"LARGE","TLE_LINE2":"2 48380  53.0567 288.3698 0001817  48.4671 311.6474 15.06383559 87985","TIME_SYSTEM":"UTC","OBJECT_TYPE":"PAYLOAD","INCLINATION":"53.0567","CENTER_NAME":"EARTH","COUNTRY_CODE":"US"},{"OBJECT_ID":"2021-038AE","GP_ID":"219694930","LAUNCH_DATE":"2021-05-04","EPHEMERIS_TYPE":"0","PERIAPSIS":"546.116","NORAD_CAT_ID":"48381","MEAN_MOTION_DDOT":"0.0000000000000","REF_FRAME":"TEME","MEAN_ELEMENT_THEORY":"SGP4","CLASSIFICATION_TYPE":"U","ARG_OF_PERICENTER":"58.2359","MEAN_MOTION":"15.06397135","ECCENTRICITY":"0.00015970","EPOCH":"2022-12-06T14:13:39.975456","OBJECT_NAME":"STARLINK-2630","APOAPSIS":"548.328","OBJECT_TYPE":"PAYLOAD","RCS_SIZE":"LARGE","DECAY_DATE":null,"TLE_LINE2":"2 48381  53.0568 289.6939 0001597  58.2359 301.8785 15.06397135 87943","TIME_SYSTEM":"UTC","COUNTRY_CODE":"US","INCLINATION":"53.0568","CENTER_NAME":"EARTH","SEMIMAJOR_AXIS":"6925.357","MEAN_ANOMALY":"301.8785","MEAN_MOTION_DOT":"0.00000485","BSTAR":"0.00005146700000","TLE_LINE1":"1 48381U 21038AE  22340.59282379  .00000485  00000-0  51467-4 0  9998","ELEMENT_SET_NO":"999","FILE":"3683274","PERIOD":"95.592","SITE":"AFETR","REV_AT_EPOCH":"8794","RA_OF_ASC_NODE":"289.6939"},{"OBJECT_NAME":"STARLINK-2585","ECCENTRICITY":"0.00022170","CLASSIFICATION_TYPE":"U","ARG_OF_PERICENTER":"51.1440","MEAN_MOTION":"15.06391583","EPOCH":"2022-12-06T20:30:30.860640","APOAPSIS":"548.775","LAUNCH_DATE":"2021-05-04","PERIAPSIS":"545.704","EPHEMERIS_TYPE":"0","GP_ID":"219695180","OBJECT_ID":"2021-038AF","MEAN_ELEMENT_THEORY":"SGP4","REF_FRAME":"TEME","MEAN_MOTION_DDOT":"0.0000000000000","NORAD_CAT_ID":"48382","MEAN_MOTION_DOT":"-0.00000053","SEMIMAJOR_AXIS":"6925.374","MEAN_ANOMALY":"308.9747","REV_AT_EPOCH":"8798","SITE":"AFETR","RA_OF_ASC_NODE":"288.5117","ELEMENT_SET_NO":"999","TLE_LINE1":"1 48382U 21038AF  22340.85452385 -.00000053  00000-0  15383-4 0  9993","BSTAR":"0.00001538300000","PERIOD":"95.593","FILE":"3683274","DECAY_DATE":null,"RCS_SIZE":"LARGE","TIME_SYSTEM":"UTC","TLE_LINE2":"2 48382  53.0543 288.5117 0002217  51.1440 308.9747 15.06391583 87987","OBJECT_TYPE":"PAYLOAD","INCLINATION":"53.0543","CENTER_NAME":"EARTH","COUNTRY_CODE":"US"},{"OBJECT_TYPE":"PAYLOAD","TLE_LINE2":"2 48383  53.0553 289.7252 0001714  62.8892 297.2272 15.06394012 89168","TIME_SYSTEM":"UTC","RCS_SIZE":"LARGE","DECAY_DATE":null,"COUNTRY_CODE":"US","CENTER_NAME":"EARTH","INCLINATION":"53.0553","MEAN_ANOMALY":"297.2272","SEMIMAJOR_AXIS":"6925.367","MEAN_MOTION_DOT":"-0.00000122","FILE":"3683274","PERIOD":"95.593","TLE_LINE1":"1 48383U 21038AG  22340.58545146 -.00000122  00000-0  10687-4 0  9991","BSTAR":"0.00001068700000","ELEMENT_SET_NO":"999","RA_OF_ASC_NODE":"289.7252","SITE":"AFETR","REV_AT_EPOCH":"8916","GP_ID":"219695930","OBJECT_ID":"2021-038AG","EPHEMERIS_TYPE":"0","PERIAPSIS":"546.045","LAUNCH_DATE":"2021-05-04","NORAD_CAT_ID":"48383","MEAN_MOTION_DDOT":"0.0000000000000","REF_FRAME":"TEME","MEAN_ELEMENT_THEORY":"SGP4","EPOCH":"2022-12-06T14:03:03.006144","MEAN_MOTION":"15.06394012","CLASSIFICATION_TYPE":"U","ARG_OF_PERICENTER":"62.8892","ECCENTRICITY":"0.00017140","OBJECT_NAME":"STARLINK-2599","APOAPSIS":"548.419"},{"MEAN_ANOMALY":"310.5143","SEMIMAJOR_AXIS":"6925.360","MEAN_MOTION_DOT":"-0.00003563","FILE":"3683342","PERIOD":"95.592","ELEMENT_SET_NO":"999","TLE_LINE1":"1 48384U 21038AH  22340.91350796 -.00003563  00000-0 -22042-3 0  9994","BSTAR":"-0.00022042000000","RA_OF_ASC_NODE":"288.2527","SITE":"AFETR","REV_AT_EPOCH":"8857","OBJECT_TYPE":"PAYLOAD","TLE_LINE2":"2 48384  53.0534 288.2527 0002183  49.6036 310.5143 15.06396210 88573","TIME_SYSTEM":"UTC","RCS_SIZE":"LARGE","DECAY_DATE":null,"COUNTRY_CODE":"US","CENTER_NAME":"EARTH","INCLINATION":"53.0534","EPOCH":"2022-12-06T21:55:27.087744","CLASSIFICATION_TYPE":"U","ARG_OF_PERICENTER":"49.6036","MEAN_MOTION":"15.06396210","ECCENTRICITY":"0.00021830","OBJECT_NAME":"STARLINK-2601","APOAPSIS":"548.737","GP_ID":"219701565","OBJECT_ID":"2021-038AH","EPHEMERIS_TYPE":"0","PERIAPSIS":"545.713","LAUNCH_DATE":"2021-05-04","NORAD_CAT_ID":"48384","REF_FRAME":"TEME","MEAN_MOTION_DDOT":"0.0000000000000","MEAN_ELEMENT_THEORY":"SGP4"},{"MEAN_MOTION_DOT":"0.00000220","SEMIMAJOR_AXIS":"6925.372","MEAN_ANOMALY":"303.3749","REV_AT_EPOCH":"8916","SITE":"AFETR","RA_OF_ASC_NODE":"289.7576","TLE_LINE1":"1 48385U 21038AJ  22340.57807702  .00000220  00000-0  33669-4 0  9994","BSTAR":"0.00003366900000","ELEMENT_SET_NO":"999","PERIOD":"95.593","FILE":"3683274","DECAY_DATE":null,"RCS_SIZE":"LARGE","TIME_SYSTEM":"UTC","TLE_LINE2":"2 48385  53.0556 289.7576 0001764  56.7409 303.3749 15.06392451 89166","OBJECT_TYPE":"PAYLOAD","INCLINATION":"53.0556","CENTER_NAME":"EARTH","COUNTRY_CODE":"US","OBJECT_NAME":"STARLINK-2598","ECCENTRICITY":"0.00017640","MEAN_MOTION":"15.06392451","CLASSIFICATION_TYPE":"U","ARG_OF_PERICENTER":"56.7409","EPOCH":"2022-12-06T13:52:25.854528","APOAPSIS":"548.458","LAUNCH_DATE":"2021-05-04","PERIAPSIS":"546.015","EPHEMERIS_TYPE":"0","GP_ID":"219694431","OBJECT_ID":"2021-038AJ","MEAN_ELEMENT_THEORY":"SGP4","MEAN_MOTION_DDOT":"0.0000000000000","REF_FRAME":"TEME","NORAD_CAT_ID":"48385"},{"RA_OF_ASC_NODE":"283.3370","SITE":"AFETR","REV_AT_EPOCH":"8805","FILE":"3683274","PERIOD":"95.592","TLE_LINE1":"1 48386U 21038AK  22340.89737325  .00000119  00000-0  26910-4 0  9991","BSTAR":"0.00002691000000","ELEMENT_SET_NO":"999","MEAN_MOTION_DOT":"0.00000119","MEAN_ANOMALY":"296.1664","SEMIMAJOR_AXIS":"6925.362","CENTER_NAME":"EARTH","INCLINATION":"53.0551","COUNTRY_CODE":"US","TLE_LINE2":"2 48386  53.0551 283.3370 0001826  63.9512 296.1664 15.06395777 88054","TIME_SYSTEM":"UTC","DECAY_DATE":null,"RCS_SIZE":"LARGE","OBJECT_TYPE":"PAYLOAD","APOAPSIS":"548.491","OBJECT_NAME":"STARLINK-2606","EPOCH":"2022-12-06T21:32:13.048800","MEAN_MOTION":"15.06395777","CLASSIFICATION_TYPE":"U","ARG_OF_PERICENTER":"63.9512","ECCENTRICITY":"0.00018260","REF_FRAME":"TEME","MEAN_MOTION_DDOT":"0.0000000000000","MEAN_ELEMENT_THEORY":"SGP4","NORAD_CAT_ID":"48386","EPHEMERIS_TYPE":"0","PERIAPSIS":"545.962","LAUNCH_DATE":"2021-05-04","OBJECT_ID":"2021-038AK","GP_ID":"219694681"},{"MEAN_MOTION_DDOT":"0.0000000000000","REF_FRAME":"TEME","MEAN_ELEMENT_THEORY":"SGP4","NORAD_CAT_ID":"48387","LAUNCH_DATE":"2021-05-04","EPHEMERIS_TYPE":"0","PERIAPSIS":"545.853","GP_ID":"219673739","OBJECT_ID":"2021-038AL","APOAPSIS":"548.533","OBJECT_NAME":"STARLINK-2600","ARG_OF_PERICENTER":"49.1818","CLASSIFICATION_TYPE":"U","MEAN_MOTION":"15.06406763","ECCENTRICITY":"0.00019350","EPOCH":"2022-12-06T06:19:16.093344","INCLINATION":"53.0540","CENTER_NAME":"EARTH","COUNTRY_CODE":"US","DECAY_DATE":null,"RCS_SIZE":"MEDIUM","TLE_LINE2":"2 48387  53.0540 286.1439 0001935  49.1818 310.9338 15.06406763 88552","TIME_SYSTEM":"UTC","OBJECT_TYPE":"PAYLOAD","SITE":"AFETR","REV_AT_EPOCH":"8855","RA_OF_ASC_NODE":"286.1439","BSTAR":"0.00003116800000","TLE_LINE1":"1 48387U 21038AL  22340.26338071  .00000183  00000-0  31168-4 0  9990","ELEMENT_SET_NO":"999","FILE":"3683263","PERIOD":"95.592","MEAN_MOTION_DOT":"0.00000183","SEMIMAJOR_AXIS":"6925.328","MEAN_ANOMALY":"310.9338"},{"OBJECT_TYPE":"PAYLOAD","TIME_SYSTEM":"UTC","TLE_LINE2":"2 48388  53.0549 284.6966 0001706  69.1114 291.0057 15.06402498 88016","DECAY_DATE":null,"RCS_SIZE":"LARGE","COUNTRY_CODE":"US","CENTER_NAME":"EARTH","INCLINATION":"53.0549","MEAN_ANOMALY":"291.0057","SEMIMAJOR_AXIS":"6925.341","MEAN_MOTION_DOT":"0.00000390","PERIOD":"95.592","FILE":"3683274","ELEMENT_SET_NO":"999","TLE_LINE1":"1 48388U 21038AM  22340.59143672  .00000390  00000-0  45055-4 0  9998","BSTAR":"0.00004505500000","RA_OF_ASC_NODE":"284.6966","REV_AT_EPOCH":"8801","SITE":"AFETR","OBJECT_ID":"2021-038AM","GP_ID":"219695666","PERIAPSIS":"546.024","EPHEMERIS_TYPE":"0","LAUNCH_DATE":"2021-05-04","NORAD_CAT_ID":"48388","MEAN_ELEMENT_THEORY":"SGP4","REF_FRAME":"TEME","MEAN_MOTION_DDOT":"0.0000000000000","EPOCH":"2022-12-06T14:11:40.132608","ECCENTRICITY":"0.00017060","ARG_OF_PERICENTER":"69.1114","CLASSIFICATION_TYPE":"U","MEAN_MOTION":"15.06402498","OBJECT_NAME":"STARLINK-2594","APOAPSIS":"548.387"}];
